GLOBALSTAR M024 [-]     
1 25883U 99043A   23356.80539103 -.00000105  00000+0 -14300-2 0  9996
2 25883  51.9983 164.4067 0000195 323.1107 141.2788 11.10157485 54624
GLOBALSTAR M027 [-]     
1 25884U 99043B   23357.86849871 -.00000045  00000+0  68497-3 0  9999
2 25884  52.0188 224.6611 0020624 194.6460 165.3737 11.04366846 81436
GLOBALSTAR M054 [-]     
1 25885U 99043C   23357.58784716 -.00000082  00000+0 -27806-3 0  9996
2 25885  52.0151  83.4689 0003760 322.9377 144.7531 11.39202805 57324
GLOBALSTAR M053 [-]     
1 25886U 99043D   23357.40174529 -.00000058  00000+0  30327-3 0  9997
2 25886  52.0013   0.9564 0003295 243.0529 265.7147 11.27652515 58325
GLOBALSTAR M058 [-]     
1 25907U 99049A   23357.64296837 -.00000075  00000+0  12716-3 0  9991
2 25907  51.9934 115.2024 0001628 315.3288  44.7415 11.93171811476890
GLOBALSTAR M050 [-]     
1 25908U 99049B   23357.66049987 -.00000148  00000+0 -68071-3 0  9993
2 25908  51.9966 163.2864 0009479  40.4977  42.4555 12.07425437 82776
GLOBALSTAR M033 [-]     
1 25909U 99049C   23357.59555549 -.00000002  00000+0  85725-3 0  9995
2 25909  51.9923  72.7079 0011405 235.9705 124.0060 12.20261871469620
GLOBALSTAR M055 [-]     
1 25910U 99049D   23357.62527338 -.00000098  00000+0 -30563-4 0  9993
2 25910  52.0020 109.7242 0007847  90.4581 269.7169 12.29392399101670
